NOAA 16 [-]             
1 26536U 00055A   17346.42078967  .00000000  00000-0  23512-4 0  9993
2 26536  98.8390  57.1629 0010765 170.9054 189.2315 14.13193273888070
